<?xml version="1.0" encoding="UTF-8"?>
<ndm xmlns:xsi="http://www.w3.org/2001/XMLSchema-instance" xsi:noNamespaceSchemaLocation="https://sanaregistry.org/r/ndmxml_unqualified/ndmxml-2.0.0-master-2.0.xsd">
<omm id="CCSDS_OMM_VERS" version="2.0">
<header><CREATION_DATE/><ORIGINATOR/></header><body><segment><metadata><OBJECT_NAME>IRIDIUM 39</OBJECT_NAME><OBJECT_ID>1997-069D</OBJECT_ID><CENTER_NAME>EARTH</CENTER_NAME><REF_FRAME>TEME</REF_FRAME><TIME_SYSTEM>UTC</TIME_SYSTEM><MEAN_ELEMENT_THEORY>SGP4</MEAN_ELEMENT_THEORY></metadata><data><meanElements><EPOCH>2025-12-11T21:50:46.614336</EPOCH><MEAN_MOTION>14.49503504</MEAN_MOTION><ECCENTRICITY>.0019677</ECCENTRICITY><INCLINATION>86.3915</INCLINATION><RA_OF_ASC_NODE>134.9873</RA_OF_ASC_NODE><ARG_OF_PERICENTER>74.7532</ARG_OF_PERICENTER><MEAN_ANOMALY>285.5846</MEAN_ANOMALY></meanElements><tleParameters><EPHEMERIS_TYPE>0</EPHEMERIS_TYPE><CLASSIFICATION_TYPE>U</CLASSIFICATION_TYPE><NORAD_CAT_ID>25042</NORAD_CAT_ID><ELEMENT_SET_NO>999</ELEMENT_SET_NO><REV_AT_EPOCH>47470</REV_AT_EPOCH><BSTAR>.31973E-3</BSTAR><MEAN_MOTION_DOT>.1248E-4</MEAN_MOTION_DOT><MEAN_MOTION_DDOT>0</MEAN_MOTION_DDOT></tleParameters></data></segment></body></omm>
<omm id="CCSDS_OMM_VERS" version="2.0">
<header><CREATION_DATE/><ORIGINATOR/></header><body><segment><metadata><OBJECT_NAME>IRIDIUM 38</OBJECT_NAME><OBJECT_ID>1997-069E</OBJECT_ID><CENTER_NAME>EARTH</CENTER_NAME><REF_FRAME>TEME</REF_FRAME><TIME_SYSTEM>UTC</TIME_SYSTEM><MEAN_ELEMENT_THEORY>SGP4</MEAN_ELEMENT_THEORY></metadata><data><meanElements><EPOCH>2025-12-12T00:05:29.058720</EPOCH><MEAN_MOTION>14.38312607</MEAN_MOTION><ECCENTRICITY>.0001172</ECCENTRICITY><INCLINATION>86.3970</INCLINATION><RA_OF_ASC_NODE>158.4172</RA_OF_ASC_NODE><ARG_OF_PERICENTER>158.4422</ARG_OF_PERICENTER><MEAN_ANOMALY>201.6826</MEAN_ANOMALY></meanElements><tleParameters><EPHEMERIS_TYPE>0</EPHEMERIS_TYPE><CLASSIFICATION_TYPE>U</CLASSIFICATION_TYPE><NORAD_CAT_ID>25043</NORAD_CAT_ID><ELEMENT_SET_NO>999</ELEMENT_SET_NO><REV_AT_EPOCH>47151</REV_AT_EPOCH><BSTAR>.24672E-3</BSTAR><MEAN_MOTION_DOT>.77E-5</MEAN_MOTION_DOT><MEAN_MOTION_DDOT>0</MEAN_MOTION_DDOT></tleParameters></data></segment></body></omm>
<omm id="CCSDS_OMM_VERS" version="2.0">
<header><CREATION_DATE/><ORIGINATOR/></header><body><segment><metadata><OBJECT_NAME>IRIDIUM 42</OBJECT_NAME><OBJECT_ID>1997-077A</OBJECT_ID><CENTER_NAME>EARTH</CENTER_NAME><REF_FRAME>TEME</REF_FRAME><TIME_SYSTEM>UTC</TIME_SYSTEM><MEAN_ELEMENT_THEORY>SGP4</MEAN_ELEMENT_THEORY></metadata><data><meanElements><EPOCH>2025-12-12T00:28:54.558624</EPOCH><MEAN_MOTION>14.36530869</MEAN_MOTION><ECCENTRICITY>.0001272</ECCENTRICITY><INCLINATION>86.3977</INCLINATION><RA_OF_ASC_NODE>164.7965</RA_OF_ASC_NODE><ARG_OF_PERICENTER>98.7577</ARG_OF_PERICENTER><MEAN_ANOMALY>261.3764</MEAN_ANOMALY></meanElements><tleParameters><EPHEMERIS_TYPE>0</EPHEMERIS_TYPE><CLASSIFICATION_TYPE>U</CLASSIFICATION_TYPE><NORAD_CAT_ID>25077</NORAD_CAT_ID><ELEMENT_SET_NO>999</ELEMENT_SET_NO><REV_AT_EPOCH>46672</REV_AT_EPOCH><BSTAR>.23054E-3</BSTAR><MEAN_MOTION_DOT>.696E-5</MEAN_MOTION_DOT><MEAN_MOTION_DDOT>0</MEAN_MOTION_DDOT></tleParameters></data></segment></body></omm>
<omm id="CCSDS_OMM_VERS" version="2.0">
<header><CREATION_DATE/><ORIGINATOR/></header><body><segment><metadata><OBJECT_NAME>IRIDIUM 44</OBJECT_NAME><OBJECT_ID>1997-077B</OBJECT_ID><CENTER_NAME>EARTH</CENTER_NAME><REF_FRAME>TEME</REF_FRAME><TIME_SYSTEM>UTC</TIME_SYSTEM><MEAN_ELEMENT_THEORY>SGP4</MEAN_ELEMENT_THEORY></metadata><data><meanElements><EPOCH>2025-12-11T23:31:53.840064</EPOCH><MEAN_MOTION>14.40431374</MEAN_MOTION><ECCENTRICITY>.000316</ECCENTRICITY><INCLINATION>86.3965</INCLINATION><RA_OF_ASC_NODE>146.2761</RA_OF_ASC_NODE><ARG_OF_PERICENTER>125.3974</ARG_OF_PERICENTER><MEAN_ANOMALY>234.7520</MEAN_ANOMALY></meanElements><tleParameters><EPHEMERIS_TYPE>0</EPHEMERIS_TYPE><CLASSIFICATION_TYPE>U</CLASSIFICATION_TYPE><NORAD_CAT_ID>25078</NORAD_CAT_ID><ELEMENT_SET_NO>999</ELEMENT_SET_NO><REV_AT_EPOCH>46929</REV_AT_EPOCH><BSTAR>.20835E-3</BSTAR><MEAN_MOTION_DOT>.681E-5</MEAN_MOTION_DOT><MEAN_MOTION_DDOT>0</MEAN_MOTION_DDOT></tleParameters></data></segment></body></omm>
<omm id="CCSDS_OMM_VERS" version="2.0">
<header><CREATION_DATE/><ORIGINATOR/></header><body><segment><metadata><OBJECT_NAME>IRIDIUM 45</OBJECT_NAME><OBJECT_ID>1997-082A</OBJECT_ID><CENTER_NAME>EARTH</CENTER_NAME><REF_FRAME>TEME</REF_FRAME><TIME_SYSTEM>UTC</TIME_SYSTEM><MEAN_ELEMENT_THEORY>SGP4</MEAN_ELEMENT_THEORY></metadata><data><meanElements><EPOCH>2025-12-12T03:39:56.329056</EPOCH><MEAN_MOTION>15.31198662</MEAN_MOTION><ECCENTRICITY>.0099881</ECCENTRICITY><INCLINATION>86.3540</INCLINATION><RA_OF_ASC_NODE>320.9681</RA_OF_ASC_NODE><ARG_OF_PERICENTER>23.2771</ARG_OF_PERICENTER><MEAN_ANOMALY>337.2953</MEAN_ANOMALY></meanElements><tleParameters><EPHEMERIS_TYPE>0</EPHEMERIS_TYPE><CLASSIFICATION_TYPE>U</CLASSIFICATION_TYPE><NORAD_CAT_ID>25104</NORAD_CAT_ID><ELEMENT_SET_NO>999</ELEMENT_SET_NO><REV_AT_EPOCH>47918</REV_AT_EPOCH><BSTAR>.12921E-2</BSTAR><MEAN_MOTION_DOT>.45706E-3</MEAN_MOTION_DOT><MEAN_MOTION_DDOT>0</MEAN_MOTION_DDOT></tleParameters></data></segment></body></omm>
<omm id="CCSDS_OMM_VERS" version="2.0">
<header><CREATION_DATE/><ORIGINATOR/></header><body><segment><metadata><OBJECT_NAME>IRIDIUM 24</OBJECT_NAME><OBJECT_ID>1997-082B</OBJECT_ID><CENTER_NAME>EARTH</CENTER_NAME><REF_FRAME>TEME</REF_FRAME><TIME_SYSTEM>UTC</TIME_SYSTEM><MEAN_ELEMENT_THEORY>SGP4</MEAN_ELEMENT_THEORY></metadata><data><meanElements><EPOCH>2025-12-12T03:20:14.968896</EPOCH><MEAN_MOTION>14.42326697</MEAN_MOTION><ECCENTRICITY>.0010479</ECCENTRICITY><INCLINATION>86.3911</INCLINATION><RA_OF_ASC_NODE>4.8073</RA_OF_ASC_NODE><ARG_OF_PERICENTER>199.4481</ARG_OF_PERICENTER><MEAN_ANOMALY>160.6321</MEAN_ANOMALY></meanElements><tleParameters><EPHEMERIS_TYPE>0</EPHEMERIS_TYPE><CLASSIFICATION_TYPE>U</CLASSIFICATION_TYPE><NORAD_CAT_ID>25105</NORAD_CAT_ID><ELEMENT_SET_NO>999</ELEMENT_SET_NO><REV_AT_EPOCH>46886</REV_AT_EPOCH><BSTAR>.21618E-3</BSTAR><MEAN_MOTION_DOT>.734E-5</MEAN_MOTION_DOT><MEAN_MOTION_DDOT>0</MEAN_MOTION_DDOT></tleParameters></data></segment></body></omm>
<omm id="CCSDS_OMM_VERS" version="2.0">
<header><CREATION_DATE/><ORIGINATOR/></header><body><segment><metadata><OBJECT_NAME>IRIDIUM 51</OBJECT_NAME><OBJECT_ID>1998-018A</OBJECT_ID><CENTER_NAME>EARTH</CENTER_NAME><REF_FRAME>TEME</REF_FRAME><TIME_SYSTEM>UTC</TIME_SYSTEM><MEAN_ELEMENT_THEORY>SGP4</MEAN_ELEMENT_THEORY></metadata><data><meanElements><EPOCH>2025-12-12T00:06:41.639040</EPOCH><MEAN_MOTION>15.61915595</MEAN_MOTION><ECCENTRICITY>.0047576</ECCENTRICITY><INCLINATION>86.3732</INCLINATION><RA_OF_ASC_NODE>326.6224</RA_OF_ASC_NODE><ARG_OF_PERICENTER>277.8133</ARG_OF_PERICENTER><MEAN_ANOMALY>81.7733</MEAN_ANOMALY></meanElements><tleParameters><EPHEMERIS_TYPE>0</EPHEMERIS_TYPE><CLASSIFICATION_TYPE>U</CLASSIFICATION_TYPE><NORAD_CAT_ID>25262</NORAD_CAT_ID><ELEMENT_SET_NO>999</ELEMENT_SET_NO><REV_AT_EPOCH>47453</REV_AT_EPOCH><BSTAR>.12528E-2</BSTAR><MEAN_MOTION_DOT>.116444E-2</MEAN_MOTION_DOT><MEAN_MOTION_DDOT>0</MEAN_MOTION_DDOT></tleParameters></data></segment></body></omm>
<omm id="CCSDS_OMM_VERS" version="2.0">
<header><CREATION_DATE/><ORIGINATOR/></header><body><segment><metadata><OBJECT_NAME>IRIDIUM 57</OBJECT_NAME><OBJECT_ID>1998-019B</OBJECT_ID><CENTER_NAME>EARTH</CENTER_NAME><REF_FRAME>TEME</REF_FRAME><TIME_SYSTEM>UTC</TIME_SYSTEM><MEAN_ELEMENT_THEORY>SGP4</MEAN_ELEMENT_THEORY></metadata><data><meanElements><EPOCH>2025-12-11T15:46:26.886432</EPOCH><MEAN_MOTION>14.36050454</MEAN_MOTION><ECCENTRICITY>.00020529</ECCENTRICITY><INCLINATION>86.3959</INCLINATION><RA_OF_ASC_NODE>70.8440</RA_OF_ASC_NODE><ARG_OF_PERICENTER>97.8232</ARG_OF_PERICENTER><MEAN_ANOMALY>262.3198</MEAN_ANOMALY></meanElements><tleParameters><EPHEMERIS_TYPE>0</EPHEMERIS_TYPE><CLASSIFICATION_TYPE>U</CLASSIFICATION_TYPE><NORAD_CAT_ID>25273</NORAD_CAT_ID><ELEMENT_SET_NO>999</ELEMENT_SET_NO><REV_AT_EPOCH>45025</REV_AT_EPOCH><BSTAR>.19228909E-3</BSTAR><MEAN_MOTION_DOT>.578E-5</MEAN_MOTION_DOT><MEAN_MOTION_DDOT>0</MEAN_MOTION_DDOT></tleParameters></data></segment></body></omm>

</ndm>
