IRIDIUM 39              
1 25042U 97069D   25345.91026174  .00001248  00000+0  31973-3 0  9993
2 25042  86.3915 134.9873 0019677  74.7532 285.5846 14.49503504474705
IRIDIUM 38              
1 25043U 97069E   25346.00380855  .00000770  00000+0  24672-3 0  9991
2 25043  86.3970 158.4172 0001172 158.4422 201.6826 14.38312607471512
IRIDIUM 42              
1 25077U 97077A   25346.02007591  .00000696  00000+0  23054-3 0  9992
2 25077  86.3977 164.7965 0001272  98.7577 261.3764 14.36530869466725
IRIDIUM 44              
1 25078U 97077B   25345.98048426  .00000681  00000+0  20835-3 0  9997
2 25078  86.3965 146.2761 0003160 125.3974 234.7520 14.40431374469293
IRIDIUM 45              
1 25104U 97082A   25346.15273529  .00045706  00000+0  12921-2 0  9990
2 25104  86.3540 320.9681 0099881  23.2771 337.2953 15.31198662479189
IRIDIUM 24              
1 25105U 97082B   25346.13906214  .00000734  00000+0  21618-3 0  9999
2 25105  86.3911   4.8073 0010479 199.4481 160.6321 14.42326697468867
IRIDIUM 51              
1 25262U 98018A   25346.00464860  .00116444  00000+0  12528-2 0  9990
2 25262  86.3732 326.6224 0047576 277.8133  81.7733 15.61915595474532
IRIDIUM 57              
1 25273U 98019B   25345.65725563  .00000578  00000+0  19229-3 0  9999
2 25273  86.3959  70.8440 0002052  97.8232 262.3198 14.36050454450253
